{"epoch":1784799577,"count":18318,"objects":[{"id":"15260","name":"COSMOS 1594 (GLONASS)","type":"PAYLOAD","l1":"1 15260U 84095B   26203.44138674 -.00000052  00000-0  00000-0 0  9998","l2":"2 15260  64.8093  73.3496 0004101 185.0226 359.8454  2.12637078325248"},{"id":"15261","name":"COSMOS 1595 (GLONASS)","type":"PAYLOAD","l1":"1 15261U 84095C   26197.31165277 -.00000018  00000-0  00000+0 0  9997","l2":"2 15261  64.8269  70.2081 0047480 218.3097 324.5001  2.13102016300142"},{"id":"15697","name":"COSMOS 1650 (GLONASS)","type":"PAYLOAD","l1":"1 15697U 85037A   26202.36809650 -.00000053  00000-0  00000-0 0  9999","l2":"2 15697  64.9085  72.1191 0032625  31.0010 148.9153  2.13101990297023"},{"id":"15698","name":"COSMOS 1651 (GLONASS)","type":"PAYLOAD","l1":"1 15698U 85037B   26198.57556750 -.00000027  00000-0  00000+0 0  9997","l2":"2 15698  64.8970  71.7976 0015352  28.2120 148.7924  2.13123397320431"},{"id":"15699","name":"COSMOS 1652 (GLONASS)","type":"PAYLOAD","l1":"1 15699U 85037C   26202.10179310 -.00000053  00000-0  00000-0 0  9996","l2":"2 15699  64.8930  71.9695 0018545  28.2861 149.5431  2.13067416320382"},{"id":"16396","name":"COSMOS 1710 (GLONASS)","type":"PAYLOAD","l1":"1 16396U 85118A   26198.92882706 -.00000074  00000-0  00000-0 0  9998","l2":"2 16396  66.0308 323.2261 0013704 199.4174 215.0654  2.13103124315783"},{"id":"16397","name":"COSMOS 1711 (GLONASS)","type":"PAYLOAD","l1":"1 16397U 85118B   26202.64718709 -.00000090  00000-0  00000-0 0  9993","l2":"2 16397  66.0449 323.3140 0009547 183.5458 174.3026  2.13101236315485"},{"id":"16398","name":"COSMOS 1712 (GLONASS)","type":"PAYLOAD","l1":"1 16398U 85118C   26201.27933148 -.00000085  00000-0  00000-0 0  9992","l2":"2 16398  66.0425 323.9570 0010326  12.5205 356.4228  2.12919885314753"},{"id":"16961","name":"COSMOS 1778 (GLONASS)","type":"PAYLOAD","l1":"1 16961U 86071A   26199.57340005 -.00000037  00000-0  00000-0 0  9997","l2":"2 16961  64.9136  71.2652 0003906 219.9452 316.9481  2.13102784310045"},{"id":"16962","name":"COSMOS 1779 (GLONASS)","type":"PAYLOAD","l1":"1 16962U 86071B   26198.57600082 -.00000027  00000-0  00000+0 0  9999","l2":"2 16962  64.9161  71.3734 0014020  44.9328 137.8497  2.13102725309896"},{"id":"16963","name":"COSMOS 1780 (GLONASS)","type":"PAYLOAD","l1":"1 16963U 86071C   26203.23263322 -.00000052  00000-0  00000-0 0  9991","l2":"2 16963  64.9096  70.9174 0003267 341.0082 197.6920  2.13107866310074"},{"id":"18355","name":"COSMOS 1883 (GLONASS)","type":"PAYLOAD","l1":"1 18355U 87079A   26200.31763190 -.00000079  00000-0  00000-0 0  9990","l2":"2 18355  65.5743 317.6564 0004725 241.0444 117.3571  2.13101039302216"},{"id":"18356","name":"COSMOS 1884 (GLONASS)","type":"PAYLOAD","l1":"1 18356U 87079B   26201.63580487 -.00000086  00000-0  00000-0 0  9991","l2":"2 18356  65.6011 317.9621 0020968 205.4393 162.8520  2.13103057302386"}]}