[
    {
        "OBJECT_NAME": "COSMOS 1594 [GLONASS]",
        "OBJECT_ID": "1984-095B",
        "EPOCH": "2026-07-22T10:35:35.814336",
        "MEAN_MOTION": 2.12637078,
        "ECCENTRICITY": 0.00041011,
        "INCLINATION": 64.8093,
        "RA_OF_ASC_NODE": 73.3496,
        "ARG_OF_PERICENTER": 185.0226,
        "MEAN_ANOMALY": 359.8454,
        "EPHEMERIS_TYPE": 0,
        "CLASSIFICATION_TYPE": "U",
        "NORAD_CAT_ID": 15260,
        "ELEMENT_SET_NO": 999,
        "REV_AT_EPOCH": 32524,
        "BSTAR": 0,
        "MEAN_MOTION_DOT": -5.2e-07,
        "MEAN_MOTION_DDOT": 0
    },
    {
        "OBJECT_NAME": "COSMOS 1595 [GLONASS]",
        "OBJECT_ID": "1984-095C",
        "EPOCH": "2026-07-16T07:28:46.799328",
        "MEAN_MOTION": 2.13102016,
        "ECCENTRICITY": 0.004748,
        "INCLINATION": 64.8269,
        "RA_OF_ASC_NODE": 70.2081,
        "ARG_OF_PERICENTER": 218.3097,
        "MEAN_ANOMALY": 324.5001,
        "EPHEMERIS_TYPE": 0,
        "CLASSIFICATION_TYPE": "U",
        "NORAD_CAT_ID": 15261,
        "ELEMENT_SET_NO": 999,
        "REV_AT_EPOCH": 30014,
        "BSTAR": 0,
        "MEAN_MOTION_DOT": -1.8e-07,
        "MEAN_MOTION_DDOT": 0
    },
    {
        "OBJECT_NAME": "COSMOS 1650 [GLONASS]",
        "OBJECT_ID": "1985-037A",
        "EPOCH": "2026-07-21T08:50:03.537600",
        "MEAN_MOTION": 2.1310199,
        "ECCENTRICITY": 0.00326253,
        "INCLINATION": 64.9085,
        "RA_OF_ASC_NODE": 72.1191,
        "ARG_OF_PERICENTER": 31.001,
        "MEAN_ANOMALY": 148.9153,
        "EPHEMERIS_TYPE": 0,
        "CLASSIFICATION_TYPE": "U",
        "NORAD_CAT_ID": 15697,
        "ELEMENT_SET_NO": 999,
        "REV_AT_EPOCH": 29702,
        "BSTAR": 0,
        "MEAN_MOTION_DOT": -5.3e-07,
        "MEAN_MOTION_DDOT": 0
    },
    {
        "OBJECT_NAME": "COSMOS 1651 [GLONASS]",
        "OBJECT_ID": "1985-037B",
        "EPOCH": "2026-07-17T13:48:49.032000",
        "MEAN_MOTION": 2.13123397,
        "ECCENTRICITY": 0.0015352,
        "INCLINATION": 64.897,
        "RA_OF_ASC_NODE": 71.7976,
        "ARG_OF_PERICENTER": 28.212,
        "MEAN_ANOMALY": 148.7924,
        "EPHEMERIS_TYPE": 0,
        "CLASSIFICATION_TYPE": "U",
        "NORAD_CAT_ID": 15698,
        "ELEMENT_SET_NO": 999,
        "REV_AT_EPOCH": 32043,
        "BSTAR": 0,
        "MEAN_MOTION_DOT": -2.7e-07,
        "MEAN_MOTION_DDOT": 0
    },
    {
        "OBJECT_NAME": "COSMOS 1652 [GLONASS]",
        "OBJECT_ID": "1985-037C",
        "EPOCH": "2026-07-21T02:26:34.923840",
        "MEAN_MOTION": 2.13067416,
        "ECCENTRICITY": 0.0018545,
        "INCLINATION": 64.893,
        "RA_OF_ASC_NODE": 71.9695,
        "ARG_OF_PERICENTER": 28.2861,
        "MEAN_ANOMALY": 149.5431,
        "EPHEMERIS_TYPE": 0,
        "CLASSIFICATION_TYPE": "U",
        "NORAD_CAT_ID": 15699,
        "ELEMENT_SET_NO": 999,
        "REV_AT_EPOCH": 32038,
        "BSTAR": 0,
        "MEAN_MOTION_DOT": -5.3e-07,
        "MEAN_MOTION_DDOT": 0
    },
    {
        "OBJECT_NAME": "COSMOS 1710 [GLONASS]",
        "OBJECT_ID": "1985-118A",
        "EPOCH": "2026-07-17T22:17:30.657984",
        "MEAN_MOTION": 2.13103124,
        "ECCENTRICITY": 0.00137042,
        "INCLINATION": 66.0308,
        "RA_OF_ASC_NODE": 323.2261,
        "ARG_OF_PERICENTER": 199.4174,
        "MEAN_ANOMALY": 215.0654,
        "EPHEMERIS_TYPE": 0,
        "CLASSIFICATION_TYPE": "U",
        "NORAD_CAT_ID": 16396,
        "ELEMENT_SET_NO": 999,
        "REV_AT_EPOCH": 31578,
        "BSTAR": 0,
        "MEAN_MOTION_DOT": -7.4e-07,
        "MEAN_MOTION_DDOT": 0
    },
    {
        "OBJECT_NAME": "COSMOS 1711 [GLONASS]",
        "OBJECT_ID": "1985-118B",
        "EPOCH": "2026-07-21T15:31:56.964576",
        "MEAN_MOTION": 2.13101236,
        "ECCENTRICITY": 0.0009547,
        "INCLINATION": 66.0449,
        "RA_OF_ASC_NODE": 323.314,
        "ARG_OF_PERICENTER": 183.5458,
        "MEAN_ANOMALY": 174.3026,
        "EPHEMERIS_TYPE": 0,
        "CLASSIFICATION_TYPE": "U",
        "NORAD_CAT_ID": 16397,
        "ELEMENT_SET_NO": 999,
        "REV_AT_EPOCH": 31548,
        "BSTAR": 0,
        "MEAN_MOTION_DOT": -9e-07,
        "MEAN_MOTION_DDOT": 0
    },
    {
        "OBJECT_NAME": "COSMOS 1712 [GLONASS]",
        "OBJECT_ID": "1985-118C",
        "EPOCH": "2026-07-20T06:42:14.239872",
        "MEAN_MOTION": 2.12919885,
        "ECCENTRICITY": 0.00103265,
        "INCLINATION": 66.0425,
        "RA_OF_ASC_NODE": 323.957,
        "ARG_OF_PERICENTER": 12.5205,
        "MEAN_ANOMALY": 356.4228,
        "EPHEMERIS_TYPE": 0,
        "CLASSIFICATION_TYPE": "U",
        "NORAD_CAT_ID": 16398,
        "ELEMENT_SET_NO": 999,
        "REV_AT_EPOCH": 31475,
        "BSTAR": 0,
        "MEAN_MOTION_DOT": -8.5e-07,
        "MEAN_MOTION_DDOT": 0
    },
    {
        "OBJECT_NAME": "COSMOS 1778 [GLONASS]",
        "OBJECT_ID": "1986-071A",
        "EPOCH": "2026-07-18T13:45:41.764320",
        "MEAN_MOTION": 2.13102784,
        "ECCENTRICITY": 0.0003906,
        "INCLINATION": 64.9136,
        "RA_OF_ASC_NODE": 71.2652,
        "ARG_OF_PERICENTER": 219.9452,
        "MEAN_ANOMALY": 316.9481,
        "EPHEMERIS_TYPE": 0,
        "CLASSIFICATION_TYPE": "U",
        "NORAD_CAT_ID": 16961,
        "ELEMENT_SET_NO": 999,
        "REV_AT_EPOCH": 31004,
        "BSTAR": 0,
        "MEAN_MOTION_DOT": -3.7e-07,
        "MEAN_MOTION_DDOT": 0
    },
    {
        "OBJECT_NAME": "COSMOS 1779 [GLONASS]",
        "OBJECT_ID": "1986-071B",
        "EPOCH": "2026-07-17T13:49:26.470848",
        "MEAN_MOTION": 2.13102725,
        "ECCENTRICITY": 0.001402,
        "INCLINATION": 64.9161,
        "RA_OF_ASC_NODE": 71.3734,
        "ARG_OF_PERICENTER": 44.9328,
        "MEAN_ANOMALY": 137.8497,
        "EPHEMERIS_TYPE": 0,
        "CLASSIFICATION_TYPE": "U",
        "NORAD_CAT_ID": 16962,
        "ELEMENT_SET_NO": 999,
        "REV_AT_EPOCH": 30989,
        "BSTAR": 0,
        "MEAN_MOTION_DOT": -2.7e-07,
        "MEAN_MOTION_DDOT": 0
    },
    {
        "OBJECT_NAME": "COSMOS 1780 [GLONASS]",
        "OBJECT_ID": "1986-071C",
        "EPOCH": "2026-07-22T05:34:59.510208",
        "MEAN_MOTION": 2.13107866,
        "ECCENTRICITY": 0.00032667,
        "INCLINATION": 64.9096,
        "RA_OF_ASC_NODE": 70.9174,
        "ARG_OF_PERICENTER": 341.0082,
        "MEAN_ANOMALY": 197.692,
        "EPHEMERIS_TYPE": 0,
        "CLASSIFICATION_TYPE": "U",
        "NORAD_CAT_ID": 16963,
        "ELEMENT_SET_NO": 999,
        "REV_AT_EPOCH": 31007,
        "BSTAR": 0,
        "MEAN_MOTION_DOT": -5.2e-07,
        "MEAN_MOTION_DDOT": 0
    },
    {
        "OBJECT_NAME": "COSMOS 1883 [GLONASS]",
        "OBJECT_ID": "1987-079A",
        "EPOCH": "2026-07-19T07:37:23.396160",
        "MEAN_MOTION": 2.13101039,
        "ECCENTRICITY": 0.00047255,
        "INCLINATION": 65.5743,
        "RA_OF_ASC_NODE": 317.6564,
        "ARG_OF_PERICENTER": 241.0444,
        "MEAN_ANOMALY": 117.3571,
        "EPHEMERIS_TYPE": 0,
        "CLASSIFICATION_TYPE": "U",
        "NORAD_CAT_ID": 18355,
        "ELEMENT_SET_NO": 999,
        "REV_AT_EPOCH": 30221,
        "BSTAR": 0,
        "MEAN_MOTION_DOT": -7.9e-07,
        "MEAN_MOTION_DDOT": 0
    },
    {
        "OBJECT_NAME": "COSMOS 1884 [GLONASS]",
        "OBJECT_ID": "1987-079B",
        "EPOCH": "2026-07-20T15:15:33.540768",
        "MEAN_MOTION": 2.13103057,
        "ECCENTRICITY": 0.00209681,
        "INCLINATION": 65.6011,
        "RA_OF_ASC_NODE": 317.9621,
        "ARG_OF_PERICENTER": 205.4393,
        "MEAN_ANOMALY": 162.852,
        "EPHEMERIS_TYPE": 0,
        "CLASSIFICATION_TYPE": "U",
        "NORAD_CAT_ID": 18356,
        "ELEMENT_SET_NO": 999,
        "REV_AT_EPOCH": 30238,
        "BSTAR": 0,
        "MEAN_MOTION_DOT": -8.6e-07,
        "MEAN_MOTION_DDOT": 0
    }
]
